C/2021 B3 (NEOWISE),e,119.5037,67.3325,293.6935,31.03165,0.0057016,0.93045078,359.9990,03/11.0/2021,2000,g 13.5,4.0
# From MPEC 2021-FB5
C/2021 C1 (Rankin),h,12/07.7533/2020,143.0626,186.8915,336.4343,1.003968,3.483737,2000,11.5,4.0
# From MPEC 2021-F20
P/2021 C2 (PANSTARRS),e,21.9253,66.4738,79.1120,9.538994,0.0334542,0.48732908,1.9393,04/26.0/2021,2000,g 12.0,4.0
# From MPEC 2021-FB5
C/2021 C3 (Catalina),e,122.1618,181.9200,357.1499,63.31742,0.0019562,0.96404640,0.1419,04/26.0/2021,2000,g 14.0,4.0
# From MPEC 2021-FB5
C/2021 C4 (ATLAS),h,01/18.3568/2021,132.8656,194.2586,320.4047,1.002313,4.506645,2000,9.0,4.0
# From MPEC 2021-FB5
C/2021 C5 (PANSTARRS),h,02/10.8168/2023,50.7943,323.6903,270.9159,1.000044,3.240875,2000,9.0,4.0
# From MPEC 2021-F63
C/2021 C6 (Lemmon),h,11/13.3464/2021,164.6261,332.1546,203.5700,1.002181,3.271167,2000,12.0,4.0
# From MPEC 2021-FB5
C/2021 D1 (SWAN),e,31.4619,311.2733,72.2200,92.09508,0.0011152,0.99020882,0.0000,02/27.6067/2021,2000,g 13.0,4.0
# From MPEC 2021-F67
C/2021 D2 (ZTF),e,83.8460,305.6943,125.0881,6394,0.0000019,0.99953950,0.0000,02/04.1867/2022,2000,g  9.0,4.0
# From  98, 1083
1P/Halley,e,162.2663,58.6148,111.5509,17.87253,0.0130444,0.96616368,167.8536,04/26.0/2021,2000,g  4.0,6.0
# From MPEC 2021-F20
2P/Encke,e,11.7834,334.5249,186.5916,2.216813,0.2986143,0.84834927,90.7805,04/26.0/2021,2000,g 11.5,6.0
# From MPEC 2015-A10
4P/Faye,e,8.0120,192.9638,206.9631,3.825898,0.1317055,0.57685380,342.0345,04/26.0/2021,2000,g  8.0,6.0
# From MPEC 2015-S97
6P/d'Arrest,e,19.5124,138.9357,178.1102,3.497236,0.1507012,0.61266458,338.1817,04/26.0/2021,2000,g  9.0,4.0
# From MPEC 2021-F20
7P/Pons-Winnecke,e,22.3636,93.3753,172.5952,3.413884,0.1562539,0.63846470,355.1386,04/26.0/2021,2000,g 14.7,4.0
# From MPEC 2021-BE3
8P/Tuttle,e,54.9115,270.2037,207.4905,5.706666,0.0722987,0.82020876,351.0536,04/26.0/2021,2000,g  8.0,8.0
# From MPEC 2021-F20
9P/Tempel,e,10.4699,68.7229,179.3315,3.147013,0.1765453,0.50931128,304.7561,04/26.0/2021,2000,g 12.5,4.0
# From MPEC 2021-F20
10P/Tempel,e,12.0395,117.8095,195.5030,3.061526,0.1839913,0.53863651,6.0213,04/26.0/2021,2000,g 13.1,4.0
# From MPEC 2017-L52
11P/Tempel-Swift-LINEAR,e,14.4204,238.9135,167.9511,3.283353,0.1656638,0.57702290,24.9771,04/26.0/2021,2000,g  9.0,4.0
# From  27, 604
12P/Pons-Brooks,e,74.1140,255.7508,199.0105,17.12570,0.0139069,0.95435549,344.8298,04/26.0/2021,2000,g  5.0,6.0
# From  27, 604
13P/Olbers,e,44.6237,85.8922,64.4745,16.70563,0.0144348,0.92972075,343.2208,04/26.0/2021,2000,g  5.0,6.0
# From MPEC 2021-F20
14P/Wolf,e,27.9101,202.0594,159.0032,4.258791,0.1121436,0.35689916,139.1033,04/26.0/2021,2000,g  5.5,12.0
# From MPC 92276
15P/Finlay,e,6.7973,13.7167,347.8237,3.505926,0.1501412,0.71706057,348.2074,04/26.0/2021,2000,g 12.0,4.0
# From MPC 92276
16P/Brooks,e,3.0119,138.8702,245.1711,3.655442,0.1410244,0.48622449,1.1056,04/26.0/2021,2000,g  7.5,10.0
# From MPEC 2020-SI8
17P/Holmes,e,19.0321,326.6204,24.4684,3.635568,0.1421824,0.42768451,9.2667,04/26.0/2021,2000,g 10.0,6.0
# From MPC 92984
19P/Borrelly,e,29.3114,74.2830,351.8720,3.606856,0.1438834,0.63784832,319.4570,04/26.0/2021,2000,g  4.5,10.0
# From MPEC 2021-F20
21P/Giacobini-Zinner,e,32.0308,195.3518,172.8544,3.495886,0.1507885,0.71090522,144.5136,04/26.0/2021,2000,g 11.4,4.0
# From MPEC 2021-F20
22P/Kopff,e,4.7420,120.8367,162.9888,3.441670,0.1543655,0.54886905,309.6743,04/26.0/2021,2000,g 12.4,4.0
# From MPC 14747
23P/Brorsen-Metcalf,e,19.1310,312.4278,128.7989,16.95114,0.0141223,0.97126833,0.0000,08/06.7179/1989,2000,g 10.0,6.0
# From MPC110085
24P/Schaumasse,e,11.5595,78.7744,58.1279,4.052825,0.1208001,0.70867963,152.0274,04/26.0/2021,2000,g  6.5,14.0
# From MPC 94674
26P/Grigg-Skjellerup,e,22.4367,211.5406,2.1851,3.014184,0.1883429,0.64041364,176.6036,04/26.0/2021,2000,g 12.0,16.0
# From MPC 78188
27P/Crommelin,e,29.1859,250.5981,195.9561,9.186427,0.0353984,0.91817237,126.1822,04/26.0/2021,2000,g 12.0,8.0
# From MPEC 2021-F20
28P/Neujmin,e,14.3120,346.3323,347.4090,6.977867,0.0534712,0.77381912,2.4126,04/26.0/2021,2000,g  8.5,6.0
# From MPEC 2020-FB5
29P/Schwassmann-Wachmann,e,9.3668,312.3749,48.9735,6.037627,0.0664362,0.04454548,50.7442,04/26.0/2021,2000,g  4.0,4.0
# From MPC110085
30P/Reinmuth,e,8.3961,118.6667,9.8936,3.676362,0.1398224,0.53105463,191.3578,04/26.0/2021,2000,g  9.5,6.0
# From MPEC 2021-F20
31P/Schwassmann-Wachmann,e,4.5473,114.1114,18.1700,4.239290,0.1129183,0.19220378,74.6427,04/26.0/2021,2000,g 13.1,4.0
# From MPC 92276
32P/Comas Sola,e,9.8884,56.7112,54.0067,4.499181,0.1032771,0.55964690,247.1028,04/26.0/2021,2000,g  6.5,8.0
# From MPEC 2013-O31
33P/Daniel,e,22.3053,66.3289,20.5648,4.084791,0.1193849,0.45178864,205.1979,04/26.0/2021,2000,g 10.0,12.0
# From  15, 452
35P/Herschel-Rigollet,e,65.051,356.592,28.996,28.5625,0.006457,0.9737685,0.000,12/29.6533/2091,2000,g  9.0,4.0
# From MPEC 2021-F20
36P/Whipple,e,9.9517,181.8548,200.8327,4.132774,0.1173118,0.26880985,38.6063,04/26.0/2021,2000,g 14.2,4.0
# From MPEC 2021-F20
37P/Forbes,e,8.9576,314.5589,330.1126,3.460065,0.1531362,0.53389445,166.5655,04/26.0/2021,2000,g 13.8,4.0
# From MPEC 2018-S50
38P/Stephan-Oterma,e,18.3596,77.9746,359.5155,11.24230,0.0261470,0.85894992,23.4553,04/26.0/2021,2000,g  3.5,12.0
# From MPEC 2020-W26
39P/Oterma,e,1.5598,299.2215,95.7303,7.391728,0.0490439,0.22403683,322.9818,04/26.0/2021,2000,g  7.0,6.0
# From MPC100283
40P/Vaisala,e,11.4693,133.7780,47.4361,4.951968,0.0894411,0.62967970,210.8806,04/26.0/2021,2000,g  5.5,12.0
# From MPC105240
41P/Tuttle-Giacobini-Kresak,e,9.2209,140.9887,62.2508,3.086870,0.1817300,0.66003806,268.1508,04/26.0/2021,2000,g 10.0,16.0
# From MPC 94283
42P/Neujmin,e,3.9907,150.1794,147.2095,4.872983,0.0916245,0.58538572,202.1485,04/26.0/2021,2000,g 13.0,6.0
# From MPC102956
43P/Wolf-Harrington,e,9.3472,244.2084,224.1233,4.313125,0.1100312,0.43643052,187.9535,04/26.0/2021,2000,g  8.0,6.0
# From MPEC 2020-HN5
44P/Reinmuth,e,5.8985,286.4795,58.1415,3.688801,0.1391157,0.42733384,309.5725,04/26.0/2021,2000,g  8.3,6.0
# From MPC103849
45P/Honda-Mrkos-Pajdusakova,e,4.3237,87.7061,327.9273,3.051391,0.1849086,0.81751272,292.5896,04/26.0/2021,2000,g 13.5,8.0
# From MPEC 2021-F20
46P/Wirtanen,e,11.7434,82.1575,356.3467,3.091560,0.1813166,0.65823869,156.9374,04/26.0/2021,2000,g 14.4,4.0
# From MPEC 2021-F20
47P/Ashbrook-Jackson,e,13.0384,356.9213,357.6249,4.124274,0.1176746,0.31827439,166.4749,04/26.0/2021,2000,g 12.2,4.0
# From MPEC 2021-F20
48P/Johnson,e,12.2070,110.1255,216.6478,3.500805,0.1504708,0.42741852,148.5527,04/26.0/2021,2000,g 12.4,4.0
# From MPEC 2021-F20
49P/Arend-Rigaux,e,19.0458,118.7971,332.9558,3.569925,0.1461219,0.59826799,148.5399,04/26.0/2021,2000,g 13.4,4.0
# From MPEC 2015-S97
50P/Arend,e,19.0998,355.1706,49.3155,4.088944,0.1192030,0.52888766,227.2614,04/26.0/2021,2000,g  9.5,6.0
# From NK 3013
51P-A/Harrington,e,5.4262,83.6641,269.2781,3.707396,0.1380704,0.54329255,287.6743,04/26.0/2021,2000,g 16.0,8.0
# From NK 3014
51P-A/Harrington,e,5.4254,83.6796,269.2389,3.708410,0.1380138,0.54336580,287.4030,04/26.0/2021,2000,g 10.0,8.0
# From NK 3014
51P-A/Harrington,e,5.4254,83.6796,269.2390,3.708392,0.1380148,0.54336269,287.4065,04/26.0/2021,2000,g 10.0,8.0
# From MPEC 2015-L08
51P-D/Harrington,e,5.4269,83.6696,269.2282,3.707484,0.1380655,0.54330676,287.6680,04/26.0/2021,2000,g 16.0,8.0
# From MPEC 2015-L08
51P-D/Harrington,e,5.4269,83.6686,269.2290,3.707472,0.1380662,0.54330731,287.6733,04/26.0/2021,2000,g 16.0,8.0
# From NK 3013
51P-D/Harrington,e,5.4262,83.6644,269.2777,3.707395,0.1380704,0.54329273,287.6745,04/26.0/2021,2000,g 16.0,8.0
# From NK 3013
51P-D/Harrington,e,5.4262,83.6644,269.2777,3.707395,0.1380704,0.54329287,287.6745,04/26.0/2021,2000,g 16.0,8.0
# From MPC 88330
52P/Harrington-Abell,e,10.2317,336.8389,139.5989,3.863296,0.1297977,0.53997664,338.9463,04/26.0/2021,2000,g 13.5,6.0
# From MPC100283
53P/Van Biesbroeck,e,6.6092,148.8157,134.4661,5.426880,0.0779612,0.55193784,141.9706,04/26.0/2021,2000,g  7.7,4.8
# From MPC 89011
54P/de Vico-Swift-NEAT,e,6.0637,358.8146,1.7752,3.791891,0.1334813,0.42589558,196.2507,04/26.0/2021,2000,g  9.0,4.0
# From MPC 31070
55P/Tempel-Tuttle,e,162.4203,235.4061,172.5106,10.35336,0.0295857,0.90626752,251.3016,04/26.0/2021,2000,g  9.0,4.0
# From MPC101100
56P/Slaughter-Burnham,e,8.1604,345.9917,43.9858,5.069901,0.0863386,0.50739380,150.3837,04/26.0/2021,2000,g  8.5,6.0
# From MPC 98565
57P/du Toit-Neujmin-Delporte,e,2.8509,188.7790,115.2586,3.445942,0.1540786,0.50082105,333.1217,04/26.0/2021,2000,g 12.5,6.0
# From MPEC 2021-F20
58P/Jackson-Neujmin,e,13.1074,159.0776,200.4748,4.085003,0.1193756,0.66276251,39.8131,04/26.0/2021,2000,g 14.1,4.0
# From MPEC 2021-F20
59P/Kearns-Kwee,e,9.3413,312.8341,127.5498,4.487570,0.1036781,0.47506614,98.7611,04/26.0/2021,2000,g  7.0,6.0
# From MPEC 2021-F20
60P/Tsuchinshan,e,3.5920,267.5591,216.9358,3.522447,0.1490862,0.53519482,129.4095,04/26.0/2021,2000,g 11.5,6.0
# From MPEC 2015-Q71
61P/Shajn-Schaldach,e,5.9988,162.9793,221.8439,3.686386,0.1392525,0.42389352,283.9205,04/26.0/2021,2000,g  6.0,10.0
# From MPC109147
62P/Tsuchinshan,e,4.7771,69.7188,46.7783,3.350386,0.1607170,0.63068442,203.9925,04/26.0/2021,2000,g  8.0,10.0
# From MPC 84320
63P/Wild,e,19.7292,358.0186,169.1075,5.606377,0.0742473,0.64883162,218.6053,04/26.0/2021,2000,g 10.5,6.0
# From MPEC 2021-F20
64P/Swift-Gehrels,e,8.9501,299.9968,97.0724,4.453845,0.1048580,0.68789598,94.7756,04/26.0/2021,2000,g 13.4,4.0
# From MPEC 2021-F20
65P/Gunn,e,9.1799,62.0196,213.8671,3.885693,0.1286771,0.24949493,165.5091,04/26.0/2021,2000,g 11.2,4.0
# From MPEC 2021-F20
66P/duToit,e,18.6510,21.8365,257.3690,6.066101,0.0659690,0.78676938,70.7761,04/26.0/2021,2000,g 15.0,4.0
# From MPC 89011
67P/Churyumov-Gerasimenko,e,3.8710,36.3473,22.1081,3.458269,0.1532554,0.64994900,330.8774,04/26.0/2021,2000,g 11.0,4.0
# From MPC 75716
68P/Klemola,e,11.1102,175.0648,153.1273,4.952985,0.0894136,0.63764555,47.7353,04/26.0/2021,2000,g 10.0,4.0
# From MPC114607
